ONEWEB-0620             
1 55161U 23004X   24149.59871980  .00000312  00000+0  84313-3 0  9991
2 55161  87.8962 170.2416 0001906  77.0234 283.1106 13.11417143 67583
ONEWEB-0621             
1 55162U 23004Y   24149.54957954 -.00000544  00000+0 -15697-2 0  9990
2 55162  87.8961 170.2212 0001786  99.3861 260.7469 13.11420245 67553
ONEWEB-0622             
1 55163U 23004Z   24149.55466314 -.00000438  00000+0 -12727-2 0  9990
2 55163  87.8964 170.2355 0001419  68.0828 292.0451 13.11417763 67543
ONEWEB-0623             
1 55164U 23004AA  24149.52847893  .00000039  00000+0  67202-4 0  9998
2 55164  87.9163 155.1077 0001231  75.6059 284.5209 13.17650220 68867
ONEWEB-0624             
1 55165U 23004AB  24149.47975735  .00001728  00000+0  47654-2 0  9993
2 55165  87.8967 139.9169 0002469  98.7766 261.3642 13.12463012 69711
ONEWEB-0625             
1 55166U 23004AC  24149.51740827  .00000006  00000+0 -16510-4 0  9999
2 55166  87.9163 155.1085 0002072  99.1919 260.9447 13.17647025 68858
ONEWEB-0626             
1 55167U 23004AD  24149.50791568  .00000030  00000+0  45217-4 0  9999
2 55167  87.9163 155.1115 0002326  76.8704 283.2687 13.17647400 68850
ONEWEB-0627             
1 55168U 23004AE  24149.57276503 -.00000191  00000+0 -52472-3 0  9994
2 55168  87.9166 155.0996 0001427  75.0279 285.1010 13.17648434 68869
